GLOBALSTAR M084         
1 38040U 11080A   25260.96434150 -.00000101  00000+0  13536-4 0  9996
2 38040  51.9993 126.0276 0000488  90.5575  16.3849 12.62268878634383
GLOBALSTAR M080         
1 38041U 11080B   25260.93489913 -.00000091  00000+0  72895-4 0  9992
2 38041  52.0045 127.7420 0001077  54.3196  48.0083 12.62269030634502
GLOBALSTAR M082         
1 38042U 11080C   25260.70773883 -.00000092  00000+0  66924-4 0  9997
2 38042  52.0066  83.9018 0001115  69.8057  10.6341 12.62268683635182
GLOBALSTAR M092         
1 38043U 11080D   25260.91829387 -.00000112  00000+0 -45727-4 0  9994
2 38043  52.0076 173.6452 0000578  63.6935  13.1465 12.62265884633668
GLOBALSTAR M090         
1 38044U 11080E   25260.81864116 -.00000099  00000+0  24697-4 0  9999
2 38044  52.0116  77.4316 0000985  88.8605  15.4497 12.62262385635316
GLOBALSTAR M086         
1 38045U 11080F   25260.68336834 -.00000085  00000+0  10556-3 0  9999
2 38045  51.9891  78.2162 0001392 135.0770 318.7170 12.62277017635241
GLOBALSTAR M097         
1 39072U 13005A   25260.53160939 -.00000108  00000+0 -22229-4 0  9992
2 39072  52.0073 353.3251 0000758 107.4065 252.6885 12.62265612582470
GLOBALSTAR M093         
1 39073U 13005B   25260.26801375 -.00000092  00000+0  68010-4 0  9998
2 39073  52.0134 347.3712 0000961 106.1362 253.9611 12.62264321582394
